0 GOLIAT
1 38080U 12006D   13282.11325595  .00089116  43355-5  16659-2 0  4652
2 38080 069.4634 266.1766 0564516 345.4304 013.1070 14.58614195 86298
0 GOLIAT
1 38080U 12006D   13282.45611923  .00094237  44775-5  17534-2 0  4663
2 38080 069.4649 265.3408 0564567 344.9527 013.5549 14.58687139 86344
0 GOLIAT
1 38080U 12006D   13282.73039329  .00100257  46549-5  18603-2 0  4678
2 38080 069.4638 264.6697 0564458 344.5740 013.8996 14.58752848 86389
0 GOLIAT
1 38080U 12006D   13283.00465367  .00102681  47306-5  19019-2 0  4682
2 38080 069.4632 263.9995 0564318 344.2113 014.2127 14.58814402 86423
0 GOLIAT
1 38080U 12006D   13283.34746264  .00110498  49828-5  20440-2 0  4694
2 38080 069.4621 263.1597 0563971 343.7463 014.6220 14.58900349 86476
0 GOLIAT
1 38080U 12006D   13283.62169865  .00110561  49868-5  20440-2 0  4696
2 38080 069.4621 262.4892 0563735 343.3774 014.9510 14.58961552 86518
0 GOLIAT
1 38080U 12006D   13283.82736844  .00108175  49099-5  20023-2 0  4708
2 38080 069.4621 261.9861 0563451 343.1176 015.1721 14.59001336 86543
0 GOLIAT
1 38080U 12006D   13284.03303508  .00102804  47416-5  18969-2 0  4710
2 38080 069.4614 261.4808 0563645 342.8681 015.3801 14.59033468 86578
0 GOLIAT
1 38080U 12006D   13284.37580522  .00101692  47097-5  18713-2 0  4727
2 38080 069.4613 260.6429 0563591 342.4179 015.8127 14.59101977 86628
0 GOLIAT
1 38080U 12006D   13285.54107900  .00100675  46862-5  18445-2 0  4756
2 38080 069.4613 257.7882 0562912 340.8248 017.2395 14.59337242 86790
0 GOLIAT
1 38080U 12006D   13285.74669677  .00101636  47164-5  18612-2 0  4763
2 38080 069.4618 257.2844 0562739 340.5457 017.4994 14.59381678 86827
0 GOLIAT
1 38080U 12006D   13286.15791290  .00101055  47007-5  18537-2 0  4774
2 38080 069.4631 256.2810 0562201 339.9894 017.9897 14.59462106 86884
0 GOLIAT
1 38080U 12006D   13286.36351355  .00102172  47360-5  18734-2 0  4784
2 38080 069.4631 255.7781 0562023 339.7121 018.2465 14.59505966 86919
0 GOLIAT
1 38080U 12006D   13286.77469416  .00101649  47223-5  18601-2 0  4797
2 38080 069.4637 254.7730 0561818 339.1592 018.7421 14.59590464 86975
0 GOLIAT
1 38080U 12006D   13287.04880163  .00098932  46419-5  18095-2 0  4809
2 38080 069.4642 254.1011 0561661 338.7888 019.0609 14.59639479 87014
0 GOLIAT
1 38080U 12006D   13287.32290207  .00101699  47271-5  18617-2 0  4817
2 38080 069.4638 253.4282 0561265 338.4271 019.4065 14.59699692 87051
0 GOLIAT
1 38080U 12006D   13287.73402669  .00102750  47615-5  18792-2 0  4825
2 38080 069.4647 252.4228 0560932 337.8657 019.9082 14.59786850 87115
0 GOLIAT
1 38080U 12006D   13288.00809736  .00100608  46984-5  18406-2 0  4833
2 38080 069.4632 251.7508 0560677 337.4933 020.2374 14.59838873 87157
0 GOLIAT
1 38080U 12006D   13288.55621026  .00110252  50083-5  20150-2 0  4848
2 38080 069.4616 250.4071 0560047 336.7497 020.9682 14.59974995 87232
0 GOLIAT
1 38080U 12006D   13288.69321930  .00112625  50889-5  20546-2 0  4854
2 38080 069.4615 250.0723 0560034 336.5730 021.0874 14.60011685 87252
0 GOLIAT
1 38080U 12006D   13288.96724504  .00109893  49985-5  20047-2 0  4863
2 38080 069.4632 249.3992 0559787 336.1859 021.4196 14.60067896 87291
0 GOLIAT
1 38080U 12006D   13289.30976335  .00118457  52949-5  21704-2 0  4875
2 38080 069.4639 248.5604 0558858 335.6720 021.9119 14.60162804 87349
0 GOLIAT
1 38080U 12006D   13289.72075420  .00117736  52730-5  21372-2 0  4885
2 38080 069.4618 247.5532 0559305 335.1876 022.3085 14.60258319 87401
0 GOLIAT
1 38080U 12006D   13289.92624502  .00114182  51507-5  20859-2 0  4891
2 38080 069.4605 247.0496 0558515 334.8951 022.5929 14.60301259 87437
0 GOLIAT
1 38080U 12006D   13289.99473977  .00111309  50536-5  20337-2 0  4908
2 38080 069.4604 246.8804 0558476 334.8267 022.6442 14.60311004 87443
0 GOLIAT
1 38080U 12006D   13290.67965048  .00111470  50634-5  20337-2 0  4919
2 38080 069.4604 245.2021 0557884 333.9037 023.4914 14.60465143 87542
0 GOLIAT
1 38080U 12006D   13290.95359369  .00111534  50674-5  20337-2 0  4929
2 38080 069.4604 244.5307 0557647 333.5345 023.8260 14.60526821 87589
0 GOLIAT
1 38080U 12006D   13291.29600647  .00112256  50914-5  20512-2 0  4930
2 38080 069.4664 243.6911 0557064 333.0708 024.2593 14.60606284 87639
0 GOLIAT
1 38080U 12006D   13291.91229797  .00111651  50745-5  20345-2 0  4947
2 38080 069.4680 242.1780 0556663 332.2238 025.0104 14.60747471 87729
0 GOLIAT
1 38080U 12006D   13292.18618932  .00111716  50784-5  20345-2 0  4956
2 38080 069.4680 241.5067 0556426 331.8540 025.3506 14.60809237 87760
0 GOLIAT
1 38080U 12006D   13292.25466013  .00115198  51992-5  20955-2 0  4963
2 38080 069.4652 241.3340 0556415 331.7854 025.4178 14.60830183 87777
0 GOLIAT
1 38080U 12006D   13293.21317806  .00112646  51177-5  20469-2 0  4976
2 38080 069.4653 238.9843 0555529 330.4813 026.6155 14.61042689 87915
0 GOLIAT
1 38080U 12006D   13293.28163458  .00112255  51043-5  20394-2 0  4981
2 38080 069.4667 238.8179 0555485 330.3700 026.6955 14.61056586 87926
0 GOLIAT
1 38080U 12006D   13293.89774228  .00106019  49020-5  19222-2 0  4993
2 38080 069.4678 237.3066 0555145 329.5468 027.4156 14.61180309 88015
0 GOLIAT
1 38080U 12006D   13293.96620169  .00105444  48840-5  19124-2 0  5009
2 38080 069.4679 237.1389 0555052 329.4521 027.5319 14.61193820 88023
0 GOLIAT
1 38080U 12006D   13294.24000924  .00106703  49266-5  19446-2 0  5012
2 38080 069.4664 236.4667 0554283 329.0644 027.9008 14.61255611 88065
0 GOLIAT
1 38080U 12006D   13294.85603179  .00104630  48633-5  19079-2 0  5027
2 38080 069.4680 234.9577 0553646 328.2326 028.6338 14.61382490 88156
0 GOLIAT
1 38080U 12006D   13294.92447842  .00104821  48697-5  19103-2 0  5039
2 38080 069.4682 234.7898 0553628 328.1446 028.7274 14.61397383 88162
0 GOLIAT
1 38080U 12006D   13295.26668841  .00106755  49351-5  19445-2 0  5047
2 38080 069.4643 233.9452 0553288 327.7554 029.0903 14.61476159 88211
0 GOLIAT
1 38080U 12006D   13295.81418490  .00105025  48841-5  19104-2 0  5056
2 38080 069.4613 232.5977 0552906 327.0463 029.7115 14.61587992 88291
0 GOLIAT
1 38080U 12006D   13295.88262276  .00104456  48662-5  19021-2 0  5069
2 38080 069.4619 232.4301 0552747 326.9390 029.8263 14.61600860 88304
